{"type":"FeatureCollection","features":[{"type": "Feature", "id": "lWxsWsx2VKgZPNssY1jIEUFH26Y=", "properties": {"ref": "1", "@spider": "mock", "addr:full": "100 First St", "addr:city": "San Francisco", "addr:state": "CA", "addr:postcode": "94105", "addr:country": "US"}, "geometry": {"type": "Point", "coordinates": [-122.397554, 37.789761]}},
{"type": "Feature", "id": "mPeZ-yB-g8FuSfdrC-iA9xz602E=", "properties": {"ref": "2", "@spider": "mock", "addr:full": "1 Market St", "addr:city": "San Francisco", "addr:state": "CA", "addr:postcode": "9410500", "addr:country": "US"}, "geometry": {"type": "Point", "coordinates": [-122.39545, 37.7938899999999]}},
{"type": "Feature", "id": "BB6MmWhDFx3_n4zG_UnObyplq10=", "properties": {"ref": "3", "@spider": "mock", "addr:full": "345 3rd St", "addr:city": "San Francisco", "addr:state": "CA", "addr:postcode": "94105", "addr:country": "US"}, "geometry": {"type": "Point", "coordinates": [-122.398362, 37.783341]}},
{"type": "Feature", "id": "5x4vZgj_Y5fBybRUukqMy0nmVlM=", "properties": {"ref": "4", "@spider": "mock", "addr:full": "1600 JFK Blvd", "addr:city": "Philadelphia", "addr:state": "PA", "addr:postcode": "19103", "addr:country": "US"}, "geometry": {"type": "Point", "coordinates": [-75.166848999999, 39.9536129999999]}},
{"type": "Feature", "id": "uC5b6XAgLE8RnvjuGQ95LCNxQ24=", "properties": {"ref": "5", "@spider": "mock", "addr:full": "3615-19 Dr Martin Luther King Dr", "addr:city": "St Louis", "addr:state": "MO", "addr:country": "US"}, "geometry": {"type": "Point", "coordinates": [-90.22694, 38.64745]}},
{"type": "Feature", "id": "5AOqmL5KA6pb13lopAhv8ToQ4_A=", "properties": {"ref": "6", "@spider": "mock", "addr:full": "11262 Olive Blvd", "addr:city": "Saint Louis", "addr:state": "MO", "addr:postcode": "63141", "addr:country": "US"}, "geometry": {"type": "Point", "coordinates": [-90.429169999999, 38.6717799999999]}},
{"type": "Feature", "id": "uWD03E0dPvoWMWjFJosN--sdrUQ=", "properties": {"ref": "7", "@spider": "mock", "addr:full": "232 S Woods Mill Rd", "addr:city": "Chesterfield", "addr:state": "MO", "addr:postcode": "63017", "addr:country": "US"}, "geometry": {"type": "Point", "coordinates": [-90.50284, 38.65356]}},
{"type": "Feature", "id": "9OSKnOw_hFNUbf99azfDqAElBJc=", "properties": {"ref": "8", "@spider": "mock", "addr:full": "880 Main St", "addr:city": "Waltham", "addr:state": "MA", "addr:postcode": "02451", "addr:country": "US"}, "geometry": {"type": "Point", "coordinates": [-71.246286020999, 42.3761049089999]}},
{"type": "Feature", "id": "D221lbWyC6ulnUvwDaNovvr41XM=", "properties": {"ref": "9", "@spider": "mock", "addr:full": "2017 Mission St", "addr:city": "San Francisco", "addr:state": "CA", "addr:postcode": "94110", "addr:country": "US"}, "geometry": {"type": "Point", "coordinates": [-122.419612, 37.764731]}},
{"type": "Feature", "id": "ZNZgwgFSOnoh3q5lusahrAmz_N8=", "properties": {"ref": "10", "@spider": "mock", "addr:full": "13905 Pioneer Blvd", "addr:city": "Norwalk", "addr:state": "CA", "addr:postcode": "90650", "addr:country": "US"}, "geometry": {"type": "Point", "coordinates": [-118.083358, 33.905312]}},
{"type": "Feature", "id": "mlpSGM9sVRDoL_LoFXlqgyz8_Rc=", "properties": {"ref": "11", "@spider": "mock", "addr:full": "2587 W Commonwealth Ave", "addr:city": "Alhambra", "addr:state": "CA", "addr:postcode": "91803", "addr:country": "US"}, "geometry": {"type": "Point", "coordinates": [-118.15177, 34.08825]}},
{"type": "Feature", "id": "0Cn65W0pH0FX-IQh5n8rPoSjMi8=", "properties": {"ref": "12", "@spider": "mock", "addr:full": "13205 Black Mountain Rd", "addr:city": "San Diego", "addr:state": "CA", "addr:postcode": "92129", "addr:country": "US"}, "geometry": {"type": "Point", "coordinates": [-9849844654, 32.9583]}},
{"type": "Feature", "id": "PtHap4xTbL3VBSaNf5Di_i-Yv8w=", "properties": {"ref": "13", "@spider": "mock", "addr:full": "1199 Orange Ave", "addr:city": "Coronado", "addr:state": "CA", "addr:postcode": "92118000", "addr:country": "US"}, "geometry": {"type": "Point", "coordinates": [-117.1788, 32.6838699999999]}},
{"type": "Feature", "id": "hc_Ib7QVzR1OvrfmCFXzM-Iq_Eg=", "properties": {"ref": "14", "@spider": "mock", "addr:full": "695 Crescent St", "addr:city": "Brockton", "addr:state": "MA", "addr:postcode": "02302", "addr:country": "US"}, "geometry": {"type": "Point", "coordinates": [-70.989642, 42.080987]}},
{"type": "Feature", "id": "msZm3z8O3-3gzBYF_J0TRh2zEbI=", "properties": {"ref": "15", "@spider": "mock", "addr:full": "460 W Broadway", "addr:city": "Boston", "addr:state": "MA", "addr:postcode": "02127", "addr:country": "US"}, "geometry": {"type": "Point", "coordinates": [-71.046222999999, 42.3361149999999]}}]}